{
  "norad_id": 67903,
  "name": "STARLINK-36257",
  "history": [
    {
      "epoch": "2026-03-28T19:18:21.910464",
      "apogee_km": 344.88260353955775,
      "perigee_km": 343.0969377841993,
      "latitude_deg": -50.29261576441181,
      "longitude_deg": -32.47565504000522,
      "semi_major_axis_km": 6722.126770661878,
      "eccentricity": 0.00013282,
      "inclination_deg": 97.2866,
      "raan_deg": 21.1605,
      "arg_perigee_deg": 136.6492,
      "mean_anomaly_deg": 223.4878,
      "mean_motion_rev_day": 15.7522543
    },
    {
      "epoch": "2026-03-29T01:24:16.952256",
      "apogee_km": 345.28780745107997,
      "perigee_km": 342.3946680175586,
      "latitude_deg": -24.38878993216392,
      "longitude_deg": -8.081164160044864,
      "semi_major_axis_km": 6721.978237734319,
      "eccentricity": 0.0002152,
      "inclination_deg": 97.2875,
      "raan_deg": 21.427,
      "arg_perigee_deg": 113.913,
      "mean_anomaly_deg": 246.2361,
      "mean_motion_rev_day": 15.75277641
    }
  ]
}